[{"OBJECT_NAME":"STARLINK-3236","OBJECT_ID":"2021-115AC","EPOCH":"2026-03-09T12:41:36.574656","MEAN_MOTION":15.08832827,"ECCENTRICITY":0.00010725,"INCLINATION":53.2167,"RA_OF_ASC_NODE":149.8543,"ARG_OF_PERICENTER":94.019,"MEAN_ANOMALY":266.0925,"EPHEMERIS_TYPE":0,"CLASSIFICATION_TYPE":"U","NORAD_CAT_ID":49750,"ELEMENT_SET_NO":999,"REV_AT_EPOCH":23551,"BSTAR":-1.999312e-6,"MEAN_MOTION_DOT":-3.2e-6,"MEAN_MOTION_DDOT":0},{"OBJECT_NAME":"COSMOS 2535 DEB","OBJECT_ID":"2019-039H","EPOCH":"2026-03-09T01:37:49.505376","MEAN_MOTION":15.12536261,"ECCENTRICITY":0.00199509,"INCLINATION":97.5365,"RA_OF_ASC_NODE":108.6978,"ARG_OF_PERICENTER":50.248,"MEAN_ANOMALY":310.0505,"EPHEMERIS_TYPE":0,"CLASSIFICATION_TYPE":"U","NORAD_CAT_ID":44631,"ELEMENT_SET_NO":999,"REV_AT_EPOCH":34980,"BSTAR":0.00071319108,"MEAN_MOTION_DOT":0.00012434,"MEAN_MOTION_DDOT":0}]
